{"type": "FeatureCollection", "features": [ {"type": "Feature", "properties": {"norad_id": 51444, "name": "CSG-2", "group": "resource", "lat": -58.720362100150645, "lon": -35.42907575669781, "alt_km": 630.5289524904947, "timestamp": "2025-12-02T06:27:52.678941+00:00", "meta": {"OBJECT_NAME": "CSG-2", "OBJECT_ID": "2022-008A", "EPOCH": "2025-12-01T19:39:56.390688", "MEAN_MOTION": 14.82169935, "ECCENTRICITY": 0.0001453, "INCLINATION": 97.8807, "RA_OF_ASC_NODE": 157.3069, "ARG_OF_PERICENTER": 86.3406, "MEAN_ANOMALY": 273.7973, "EPHEMERIS_TYPE": 0, "CLASSIFICATION_TYPE": "U", "NORAD_CAT_ID": 51444, "ELEMENT_SET_NO": 999, "REV_AT_EPOCH": 20735, "BSTAR": 7.4458e-05, "MEAN_MOTION_DOT": 5.41e-06, "MEAN_MOTION_DDOT": 0}, "tle": {"line1": "1 51444U 22008A   25335.81940267  .00000541  00000+0  74458-4 0  9996", "line2": "2 51444  97.8807 157.3069 0001453  86.3406 273.7973 14.82169935207353"}}, "geometry": {"type": "Point", "coordinates": [-35.42907575669781, -58.720362100150645]}}, {"type": "Feature", "properties": {"norad_id": 52912, "name": "GAOFEN-12 03", "group": "resource", "lat": -71.10408770116781, "lon": 20.09497898296879, "alt_km": 639.6221715323718, "timestamp": "2025-12-02T06:27:52.678951+00:00", "meta": {"OBJECT_NAME": "GAOFEN-12 03", "OBJECT_ID": "2022-069A", "EPOCH": "2025-12-01T19:35:14.550432", "MEAN_MOTION": 14.79564713, "ECCENTRICITY": 0.0002332, "INCLINATION": 97.8486, "RA_OF_ASC_NODE": 223.4172, "ARG_OF_PERICENTER": 77.8667, "MEAN_ANOMALY": 282.2806, "EPHEMERIS_TYPE": 0, "CLASSIFICATION_TYPE": "U", "NORAD_CAT_ID": 52912, "ELEMENT_SET_NO": 999, "REV_AT_EPOCH": 18542, "BSTAR": 0.00017885, "MEAN_MOTION_DOT": 1.288e-05, "MEAN_MOTION_DDOT": 0}, "tle": {"line1": "1 52912U 22069A   25335.81614063  .00001288  00000+0  17885-3 0  9995", "line2": "2 52912  97.8486 223.4172 0002332  77.8667 282.2806 14.79564713185420"}}, "geometry": {"type": "Point", "coordinates": [20.09497898296879, -71.10408770116781]}}, {"type": "Feature", "properties": {"norad_id": 54754, "name": "SWOT", "group": "resource", "lat": -26.281422373420035, "lon": -65.10705931440754, "alt_km": 898.8727924262066, "timestamp": "2025-12-02T06:27:52.678961+00:00", "meta": {"OBJECT_NAME": "SWOT", "OBJECT_ID": "2022-173A", "EPOCH": "2025-12-01T18:35:19.676256", "MEAN_MOTION": 14.00172029, "ECCENTRICITY": 2.88e-05, "INCLINATION": 77.6098, "RA_OF_ASC_NODE": 301.7927, "ARG_OF_PERICENTER": 143.8452, "MEAN_ANOMALY": 216.2719, "EPHEMERIS_TYPE": 0, "CLASSIFICATION_TYPE": "U", "NORAD_CAT_ID": 54754, "ELEMENT_SET_NO": 999, "REV_AT_EPOCH": 15152, "BSTAR": 2.4866e-05, "MEAN_MOTION_DOT": 3.4e-07, "MEAN_MOTION_DDOT": 0}, "tle": {"line1": "1 54754U 22173A   25335.77453329  .00000034  00000+0  24866-4 0  9994", "line2": "2 54754  77.6098 301.7927 0000288 143.8452 216.2719 14.00172029151526"}}, "geometry": {"type": "Point", "coordinates": [-65.10705931440754, -26.281422373420035]}}, {"type": "Feature", "properties": {"norad_id": 57654, "name": "GAOFEN-12 04", "group": "resource", "lat": 58.053498731732056, "lon": -120.69889635907364, "alt_km": 623.840898743546, "timestamp": "2025-12-02T06:27:52.678971+00:00", "meta": {"OBJECT_NAME": "GAOFEN-12 04", "OBJECT_ID": "2023-123A", "EPOCH": "2025-12-01T20:27:40.451328", "MEAN_MOTION": 14.79645409, "ECCENTRICITY": 0.0001472, "INCLINATION": 97.9111, "RA_OF_ASC_NODE": 251.7757, "ARG_OF_PERICENTER": 71.6004, "MEAN_ANOMALY": 288.5368, "EPHEMERIS_TYPE": 0, "CLASSIFICATION_TYPE": "U", "NORAD_CAT_ID": 57654, "ELEMENT_SET_NO": 999, "REV_AT_EPOCH": 12344, "BSTAR": 0.00022123, "MEAN_MOTION_DOT": 1.608e-05, "MEAN_MOTION_DDOT": 0}, "tle": {"line1": "1 57654U 23123A   25335.85255152  .00001608  00000+0  22123-3 0  9996", "line2": "2 57654  97.9111 251.7757 0001472  71.6004 288.5368 14.79645409123446"}}, "geometry": {"type": "Point", "coordinates": [-120.69889635907364, 58.053498731732056]}}, {"type": "Feature", "properties": {"norad_id": 59065, "name": "PARS 1", "group": "resource", "lat": -44.14800248891792, "lon": -45.70630962650959, "alt_km": 458.29929923901364, "timestamp": "2025-12-02T06:27:52.678981+00:00", "meta": {"OBJECT_NAME": "PARS 1", "OBJECT_ID": "2024-039Q", "EPOCH": "2025-12-01T21:18:18.851616", "MEAN_MOTION": 15.40604803, "ECCENTRICITY": 0.0012622, "INCLINATION": 97.4616, "RA_OF_ASC_NODE": 306.5951, "ARG_OF_PERICENTER": 104.0633, "MEAN_ANOMALY": 256.2017, "EPHEMERIS_TYPE": 0, "CLASSIFICATION_TYPE": "U", "NORAD_CAT_ID": 59065, "ELEMENT_SET_NO": 999, "REV_AT_EPOCH": 9821, "BSTAR": 0.00030808, "MEAN_MOTION_DOT": 0.00012491, "MEAN_MOTION_DDOT": 0}, "tle": {"line1": "1 59065U 24039Q   25335.88771819  .00012491  00000+0  30808-3 0  9998", "line2": "2 59065  97.4616 306.5951 0012622 104.0633 256.2017 15.40604803 98213"}}, "geometry": {"type": "Point", "coordinates": [-45.70630962650959, -44.14800248891792]}}, {"type": "Feature", "properties": {"norad_id": 59371, "name": "RESURS-P 4", "group": "resource", "lat": 66.94050706256222, "lon": -94.59047249189983, "alt_km": 461.97463602793505, "timestamp": "2025-12-02T06:27:52.678990+00:00", "meta": {"OBJECT_NAME": "RESURS-P 4", "OBJECT_ID": "2024-061A", "EPOCH": "2025-12-01T20:45:46.399104", "MEAN_MOTION": 15.31947487, "ECCENTRICITY": 0.0002292, "INCLINATION": 97.2524, "RA_OF_ASC_NODE": 282.4203, "ARG_OF_PERICENTER": 55.8234, "MEAN_ANOMALY": 304.3225, "EPHEMERIS_TYPE": 0, "CLASSIFICATION_TYPE": "U", "NORAD_CAT_ID": 59371, "ELEMENT_SET_NO": 999, "REV_AT_EPOCH": 9354, "BSTAR": 0.00015324, "MEAN_MOTION_DOT": 4.65e-05, "MEAN_MOTION_DDOT": 0}, "tle": {"line1": "1 59371U 24061A   25335.86512036  .00004650  00000+0  15324-3 0  9999", "line2": "2 59371  97.2524 282.4203 0002292  55.8234 304.3225 15.31947487 93548"}}, "geometry": {"type": "Point", "coordinates": [-94.59047249189983, 66.94050706256222]}}, {"type": "Feature", "properties": {"norad_id": 59625, "name": "LEGION 1", "group": "resource", "lat": 18.845774436128863, "lon": -126.41674573111945, "alt_km": 520.521767294742, "timestamp": "2025-12-02T06:27:52.679001+00:00", "meta": {"OBJECT_NAME": "LEGION 1", "OBJECT_ID": "2024-081A", "EPOCH": "2025-12-01T18:40:15.312864", "MEAN_MOTION": 15.16305226, "ECCENTRICITY": 0.0004845, "INCLINATION": 97.523, "RA_OF_ASC_NODE": 50.5108, "ARG_OF_PERICENTER": 0.1205, "MEAN_ANOMALY": 0.0028, "EPHEMERIS_TYPE": 0, "CLASSIFICATION_TYPE": "U", "NORAD_CAT_ID": 59625, "ELEMENT_SET_NO": 999, "REV_AT_EPOCH": 8761, "BSTAR": 0.00028212, "MEAN_MOTION_DOT": 5.4e-05, "MEAN_MOTION_DDOT": 0}, "tle": {"line1": "1 59625U 24081A   25335.77795501  .00005400  00000+0  28212-3 0  9997", "line2": "2 59625  97.5230  50.5108 0004845   0.1205   0.0028 15.16305226 87616"}}, "geometry": {"type": "Point", "coordinates": [-126.41674573111945, 18.845774436128863]}}, {"type": "Feature", "properties": {"norad_id": 59626, "name": "LEGION 2", "group": "resource", "lat": -19.759143758487966, "lon": 53.80580290453995, "alt_km": 517.8416985031727, "timestamp": "2025-12-02T06:27:52.679011+00:00", "meta": {"OBJECT_NAME": "LEGION 2", "OBJECT_ID": "2024-081B", "EPOCH": "2025-12-01T19:27:56.778912", "MEAN_MOTION": 15.16318019, "ECCENTRICITY": 0.0006351, "INCLINATION": 97.5235, "RA_OF_ASC_NODE": 50.6303, "ARG_OF_PERICENTER": 337.909, "MEAN_ANOMALY": 22.1868, "EPHEMERIS_TYPE": 0, "CLASSIFICATION_TYPE": "U", "NORAD_CAT_ID": 59626, "ELEMENT_SET_NO": 999, "REV_AT_EPOCH": 8762, "BSTAR": 0.00028153, "MEAN_MOTION_DOT": 5.391e-05, "MEAN_MOTION_DDOT": 0}, "tle": {"line1": "1 59626U 24081B   25335.81107383  .00005391  00000+0  28153-3 0  9991", "line2": "2 59626  97.5235  50.6303 0006351 337.9090  22.1868 15.16318019 87629"}}, "geometry": {"type": "Point", "coordinates": [53.80580290453995, -19.759143758487966]}}, {"type": "Feature", "properties": {"norad_id": 60182, "name": "ALOS-4 (DAICHI-4)", "group": "resource", "lat": -52.058897598146714, "lon": 81.55581281910118, "alt_km": 638.7609501982824, "timestamp": "2025-12-02T06:27:52.679021+00:00", "meta": {"OBJECT_NAME": "ALOS-4 (DAICHI-4)", "OBJECT_ID": "2024-123A", "EPOCH": "2025-11-30T09:15:12.370176", "MEAN_MOTION": 14.79468497, "ECCENTRICITY": 0.000127, "INCLINATION": 97.9232, "RA_OF_ASC_NODE": 69.4089, "ARG_OF_PERICENTER": 105.4124, "MEAN_ANOMALY": 254.7228, "EPHEMERIS_TYPE": 0, "CLASSIFICATION_TYPE": "U", "NORAD_CAT_ID": 60182, "ELEMENT_SET_NO": 999, "REV_AT_EPOCH": 7648, "BSTAR": -8.429942e-06, "MEAN_MOTION_DOT": -1.14e-06, "MEAN_MOTION_DDOT": 0}, "tle": {"line1": "1 60182U 24123A   25334.38555984 -.00000114  00000+0 -84299-5 0  9997", "line2": "2 60182  97.9232  69.4089 0001270 105.4124 254.7228 14.79468497 76488"}}, "geometry": {"type": "Point", "coordinates": [81.55581281910118, -52.058897598146714]}}, {"type": "Feature", "properties": {"norad_id": 60452, "name": "LEGION 3", "group": "resource", "lat": -26.769206335709022, "lon": -24.06170217169484, "alt_km": 531.3458883155345, "timestamp": "2025-12-02T06:27:52.679032+00:00", "meta": {"OBJECT_NAME": "LEGION 3", "OBJECT_ID": "2024-146A", "EPOCH": "2025-12-01T19:33:56.647008", "MEAN_MOTION": 15.15575766, "ECCENTRICITY": 0.001365, "INCLINATION": 45.0024, "RA_OF_ASC_NODE": 8.6893, "ARG_OF_PERICENTER": 136.4401, "MEAN_ANOMALY": 223.7558, "EPHEMERIS_TYPE": 0, "CLASSIFICATION_TYPE": "U", "NORAD_CAT_ID": 60452, "ELEMENT_SET_NO": 999, "REV_AT_EPOCH": 7207, "BSTAR": 0.00029052, "MEAN_MOTION_DOT": 5.357e-05, "MEAN_MOTION_DDOT": 0}, "tle": {"line1": "1 60452U 24146A   25335.81523897  .00005357  00000+0  29052-3 0  9995", "line2": "2 60452  45.0024   8.6893 0013650 136.4401 223.7558 15.15575766 72078"}}, "geometry": {"type": "Point", "coordinates": [-24.06170217169484, -26.769206335709022]}}]}